CCSDS_OMM_VERS = 2.0
CREATION_DATE  = 
ORIGINATOR     = 

OBJECT_NAME    = KUIPER-00130
OBJECT_ID      = 2025-228N
CENTER_NAME    = EARTH
REF_FRAME      = TEME
TIME_SYSTEM    = UTC
MEAN_ELEMENT_THEORY = SGP/SGP4

EPOCH          = 2025-11-12T13:57:20.653056
MEAN_MOTION    = 15.34903821
ECCENTRICITY   = .00039868
INCLINATION    = 51.8747
RA_OF_ASC_NODE = 165.9163
ARG_OF_PERICENTER = 250.5643
MEAN_ANOMALY   = 109.4913

EPHEMERIS_TYPE = 0
CLASSIFICATION_TYPE = U
NORAD_CAT_ID   = 65959
ELEMENT_SET_NO = 999
REV_AT_EPOCH   = 578
BSTAR          = .20814534E-2
MEAN_MOTION_DOT = .71849E-3
MEAN_MOTION_DDOT = 0

CCSDS_OMM_VERS = 2.0
CREATION_DATE  = 
ORIGINATOR     = 

OBJECT_NAME    = KUIPER-00134
OBJECT_ID      = 2025-228P
CENTER_NAME    = EARTH
REF_FRAME      = TEME
TIME_SYSTEM    = UTC
MEAN_ELEMENT_THEORY = SGP/SGP4

EPOCH          = 2025-11-12T21:48:40.173120
MEAN_MOTION    = 15.34877913
ECCENTRICITY   = .00057333
INCLINATION    = 51.8814
RA_OF_ASC_NODE = 164.3587
ARG_OF_PERICENTER = 257.2442
MEAN_ANOMALY   = 102.7904

EPHEMERIS_TYPE = 0
CLASSIFICATION_TYPE = U
NORAD_CAT_ID   = 65960
ELEMENT_SET_NO = 999
REV_AT_EPOCH   = 583
BSTAR          = .14511399E-2
MEAN_MOTION_DOT = .49799E-3
MEAN_MOTION_DDOT = 0

CCSDS_OMM_VERS = 2.0
CREATION_DATE  = 
ORIGINATOR     = 

OBJECT_NAME    = KUIPER-00135
OBJECT_ID      = 2025-228Q
CENTER_NAME    = EARTH
REF_FRAME      = TEME
TIME_SYSTEM    = UTC
MEAN_ELEMENT_THEORY = SGP/SGP4

EPOCH          = 2025-11-12T13:59:21.499872
MEAN_MOTION    = 15.34903323
ECCENTRICITY   = .00038562
INCLINATION    = 51.8773
RA_OF_ASC_NODE = 165.9354
ARG_OF_PERICENTER = 239.8289
MEAN_ANOMALY   = 120.2315

EPHEMERIS_TYPE = 0
CLASSIFICATION_TYPE = U
NORAD_CAT_ID   = 65961
ELEMENT_SET_NO = 999
REV_AT_EPOCH   = 578
BSTAR          = .15929008E-2
MEAN_MOTION_DOT = .54769E-3
MEAN_MOTION_DDOT = 0

CCSDS_OMM_VERS = 2.0
CREATION_DATE  = 
ORIGINATOR     = 

OBJECT_NAME    = KUIPER-00136
OBJECT_ID      = 2025-228R
CENTER_NAME    = EARTH
REF_FRAME      = TEME
TIME_SYSTEM    = UTC
MEAN_ELEMENT_THEORY = SGP/SGP4

EPOCH          = 2025-11-12T13:48:35.502624
MEAN_MOTION    = 15.35176694
ECCENTRICITY   = .00040919
INCLINATION    = 51.8753
RA_OF_ASC_NODE = 165.8843
ARG_OF_PERICENTER = 231.5110
MEAN_ANOMALY   = 128.5509

EPHEMERIS_TYPE = 0
CLASSIFICATION_TYPE = U
NORAD_CAT_ID   = 65962
ELEMENT_SET_NO = 999
REV_AT_EPOCH   = 578
BSTAR          = .17491192E-2
MEAN_MOTION_DOT = .60757E-3
MEAN_MOTION_DDOT = 0

CCSDS_OMM_VERS = 2.0
CREATION_DATE  = 
ORIGINATOR     = 

OBJECT_NAME    = KUIPER-00137
OBJECT_ID      = 2025-228S
CENTER_NAME    = EARTH
REF_FRAME      = TEME
TIME_SYSTEM    = UTC
MEAN_ELEMENT_THEORY = SGP/SGP4

EPOCH          = 2025-11-12T20:13:33.320928
MEAN_MOTION    = 15.34840177
ECCENTRICITY   = .00047948
INCLINATION    = 51.8795
RA_OF_ASC_NODE = 164.6754
ARG_OF_PERICENTER = 249.0780
MEAN_ANOMALY   = 110.9693

EPHEMERIS_TYPE = 0
CLASSIFICATION_TYPE = U
NORAD_CAT_ID   = 65963
ELEMENT_SET_NO = 999
REV_AT_EPOCH   = 582
BSTAR          = .23099226E-2
MEAN_MOTION_DOT = .79705E-3
MEAN_MOTION_DDOT = 0

CCSDS_OMM_VERS = 2.0
CREATION_DATE  = 
ORIGINATOR     = 

OBJECT_NAME    = KUIPER-00138
OBJECT_ID      = 2025-228T
CENTER_NAME    = EARTH
REF_FRAME      = TEME
TIME_SYSTEM    = UTC
MEAN_ELEMENT_THEORY = SGP/SGP4

EPOCH          = 2025-11-12T20:18:49.101696
MEAN_MOTION    = 15.34650938
ECCENTRICITY   = .00061704
INCLINATION    = 51.8788
RA_OF_ASC_NODE = 164.6925
ARG_OF_PERICENTER = 266.3607
MEAN_ANOMALY   = 93.6673

EPHEMERIS_TYPE = 0
CLASSIFICATION_TYPE = U
NORAD_CAT_ID   = 65964
ELEMENT_SET_NO = 999
REV_AT_EPOCH   = 582
BSTAR          = .77926873E-3
MEAN_MOTION_DOT = .26291E-3
MEAN_MOTION_DDOT = 0

CCSDS_OMM_VERS = 2.0
CREATION_DATE  = 
ORIGINATOR     = 

OBJECT_NAME    = KUIPER-00140
OBJECT_ID      = 2025-228U
CENTER_NAME    = EARTH
REF_FRAME      = TEME
TIME_SYSTEM    = UTC
MEAN_ELEMENT_THEORY = SGP/SGP4

EPOCH          = 2025-11-12T20:20:23.487648
MEAN_MOTION    = 15.34454089
ECCENTRICITY   = .0005967
INCLINATION    = 51.8850
RA_OF_ASC_NODE = 164.7045
ARG_OF_PERICENTER = 263.3969
MEAN_ANOMALY   = 96.6337

EPHEMERIS_TYPE = 0
CLASSIFICATION_TYPE = U
NORAD_CAT_ID   = 65965
ELEMENT_SET_NO = 999
REV_AT_EPOCH   = 582
BSTAR          = .17545877E-2
MEAN_MOTION_DOT = .59561E-3
MEAN_MOTION_DDOT = 0

CCSDS_OMM_VERS = 2.0
CREATION_DATE  = 
ORIGINATOR     = 

OBJECT_NAME    = KUIPER-00141
OBJECT_ID      = 2025-228V
CENTER_NAME    = EARTH
REF_FRAME      = TEME
TIME_SYSTEM    = UTC
MEAN_ELEMENT_THEORY = SGP/SGP4

EPOCH          = 2025-11-12T23:15:16.012512
MEAN_MOTION    = 15.35125022
ECCENTRICITY   = .00064164
INCLINATION    = 51.8813
RA_OF_ASC_NODE = 164.0131
ARG_OF_PERICENTER = 248.1803
MEAN_ANOMALY   = 111.8500

EPHEMERIS_TYPE = 0
CLASSIFICATION_TYPE = U
NORAD_CAT_ID   = 65966
ELEMENT_SET_NO = 999
REV_AT_EPOCH   = 584
BSTAR          = .15323198E-2
MEAN_MOTION_DOT = .53054E-3
MEAN_MOTION_DDOT = 0

CCSDS_OMM_VERS = 2.0
CREATION_DATE  = 
ORIGINATOR     = 

OBJECT_NAME    = KUIPER-00146
OBJECT_ID      = 2025-228W
CENTER_NAME    = EARTH
REF_FRAME      = TEME
TIME_SYSTEM    = UTC
MEAN_ELEMENT_THEORY = SGP/SGP4

EPOCH          = 2025-11-12T07:39:22.639392
MEAN_MOTION    = 15.34865054
ECCENTRICITY   = .00054148
INCLINATION    = 51.8783
RA_OF_ASC_NODE = 167.1661
ARG_OF_PERICENTER = 243.5986
MEAN_ANOMALY   = 116.4444

EPHEMERIS_TYPE = 0
CLASSIFICATION_TYPE = U
NORAD_CAT_ID   = 65967
ELEMENT_SET_NO = 999
REV_AT_EPOCH   = 574
BSTAR          = .2479319E-2
MEAN_MOTION_DOT = .85723E-3
MEAN_MOTION_DDOT = 0

CCSDS_OMM_VERS = 2.0
CREATION_DATE  = 
ORIGINATOR     = 

OBJECT_NAME    = KUIPER-00149
OBJECT_ID      = 2025-228X
CENTER_NAME    = EARTH
REF_FRAME      = TEME
TIME_SYSTEM    = UTC
MEAN_ELEMENT_THEORY = SGP/SGP4

EPOCH          = 2025-11-12T07:33:44.902656
MEAN_MOTION    = 15.35230071
ECCENTRICITY   = .00046052
INCLINATION    = 51.8781
RA_OF_ASC_NODE = 167.1336
ARG_OF_PERICENTER = 238.5809
MEAN_ANOMALY   = 121.4727

EPHEMERIS_TYPE = 0
CLASSIFICATION_TYPE = U
NORAD_CAT_ID   = 65968
ELEMENT_SET_NO = 999
REV_AT_EPOCH   = 574
BSTAR          = .27530019E-2
MEAN_MOTION_DOT = .96473E-3
MEAN_MOTION_DDOT = 0

CCSDS_OMM_VERS = 2.0
CREATION_DATE  = 
ORIGINATOR     = 

OBJECT_NAME    = KUIPER-00154
OBJECT_ID      = 2025-228Y
CENTER_NAME    = EARTH
REF_FRAME      = TEME
TIME_SYSTEM    = UTC
MEAN_ELEMENT_THEORY = SGP/SGP4

EPOCH          = 2025-11-12T23:09:35.389152
MEAN_MOTION    = 15.35124236
ECCENTRICITY   = .0006206
INCLINATION    = 51.8748
RA_OF_ASC_NODE = 163.9908
ARG_OF_PERICENTER = 237.4960
MEAN_ANOMALY   = 122.5426

EPHEMERIS_TYPE = 0
CLASSIFICATION_TYPE = U
NORAD_CAT_ID   = 65969
ELEMENT_SET_NO = 999
REV_AT_EPOCH   = 584
BSTAR          = .14812141E-2
MEAN_MOTION_DOT = .51257E-3
MEAN_MOTION_DDOT = 0

CCSDS_OMM_VERS = 2.0
CREATION_DATE  = 
ORIGINATOR     = 

OBJECT_NAME    = KUIPER-00157
OBJECT_ID      = 2025-228Z
CENTER_NAME    = EARTH
REF_FRAME      = TEME
TIME_SYSTEM    = UTC
MEAN_ELEMENT_THEORY = SGP/SGP4

EPOCH          = 2025-11-12T21:48:47.352096
MEAN_MOTION    = 15.34832610
ECCENTRICITY   = .00049713
INCLINATION    = 51.8752
RA_OF_ASC_NODE = 164.3659
ARG_OF_PERICENTER = 264.9072
MEAN_ANOMALY   = 95.1346

EPHEMERIS_TYPE = 0
CLASSIFICATION_TYPE = U
NORAD_CAT_ID   = 65970
ELEMENT_SET_NO = 999
REV_AT_EPOCH   = 583
BSTAR          = .22193424E-2
MEAN_MOTION_DOT = .76516E-3
MEAN_MOTION_DDOT = 0

